     2.100          NAVIGATION                              RINEX VERSION / TYPE
fic2rin                                 07/15/2012 00:17:02 PGM / RUN BY / DATE
                                                            END OF HEADER
 2 12  7 14  8  0  0.0  .396750401706D-03  .113686837722D-11  .000000000000D+00
     .104000000000D+03 -.556250000000D+01  .539879631011D-08  .679544455514D+00
    -.339001417160D-06  .113303230610D-01  .625662505627D-05  .515371636772D+04
     .547200000000D+06  .167638063431D-07 -.200285711536D+01  .227242708206D-06
     .938352910714D+00  .249125000000D+03 -.275981811453D+01 -.840285001243D-08
    -.112147528538D-09  .100000000000D+01  .169600000000D+04  .000000000000D+00
     .240000000000D+01  .000000000000D+00 -.172294676304D-07  .104000000000D+03
     .540006000000D+06  .400000000000D+01
 4 12  7 14  8  0  0.0  .243326649070D-03  .113686837722D-10  .000000000000D+00
     .160000000000D+02 -.975000000000D+01  .532057876632D-08 -.237771414534D+01
    -.853091478348D-06  .100368051790D-01  .616349279881D-05  .515361952591D+04
     .547200000000D+06  .156462192535D-06 -.198601567474D+01 -.763684511185D-07
     .937399374858D+00  .244625000000D+03  .868952273064D+00 -.819355558019D-08
     .457161899771D-10  .100000000000D+01  .169600000000D+04  .000000000000D+00
     .240000000000D+01  .000000000000D+00 -.605359673500D-08  .160000000000D+02
     .540006000000D+06  .400000000000D+01
 6 12  7 14  8  0  0.0  .712554901838D-05 -.511590769747D-11  .000000000000D+00
     .570000000000D+02 -.921875000000D+01  .490663295239D-08  .272788909651D+01
    -.474974513054D-06  .736583163962D-02  .822916626930D-05  .515368906593D+04
     .547200000000D+06 -.353902578354D-07 -.309031605390D+01  .143423676491D-06
     .938849910799D+00  .206062500000D+03 -.493722551537D+00 -.810283751571D-08
     .431089385175D-09  .100000000000D+01  .169600000000D+04  .000000000000D+00
     .240000000000D+01  .000000000000D+00 -.512227416039D-08  .570000000000D+02
     .540006000000D+06  .400000000000D+01
 7 12  7 14  8  0  0.0  .100252218544D-03  .386535248253D-11  .000000000000D+00
     .106000000000D+03 -.314375000000D+02  .426482050404D-08 -.653203402738D+00
    -.179372727871D-05  .566284195520D-02  .318139791489D-05  .515372924614D+04
     .547200000000D+06  .106170773506D-06  .117254387494D+01 -.502914190292D-07
     .975744716461D+00  .327437500000D+03 -.302717945445D+01 -.815355391396D-08
    -.241081470582D-09  .100000000000D+01  .169600000000D+04  .000000000000D+00
     .240000000000D+01  .000000000000D+00 -.107102096081D-07  .106000000000D+03
     .540006000000D+06  .400000000000D+01
 8 12  7 14  8  0  0.0  .175973400474D-05  .113686837722D-12  .000000000000D+00
     .340000000000D+02 -.475625000000D+02  .368301055503D-08 -.136687012109D+01
    -.255368649960D-05  .124395275488D-01  .358745455742D-05  .515366855049D+04
     .547200000000D+06  .130385160446D-07  .125692803555D+01 -.182539224625D-06
     .997955901760D+00  .328312500000D+03 -.295986475219D+01 -.781746848608D-08
    -.105361531588D-09  .100000000000D+01  .169600000000D+04  .000000000000D+00
     .240000000000D+01  .000000000000D+00 -.372529029846D-08  .340000000000D+02
     .540006000000D+06  .400000000000D+01
 9 12  7 14  8  0  0.0  .171612948179D-03  .261479726760D-11  .000000000000D+00
     .520000000000D+02 -.205000000000D+02  .417695970142D-08 -.136940096059D+01
    -.817701220512D-06  .175106781535D-01  .280328094959D-05  .515361643410D+04
     .547200000000D+06 -.175088644028D-06  .114714412217D+01  .430271029472D-06
     .984474596713D+00  .338031250000D+03  .163381827589D+01 -.822498546080D-08
    -.223937899341D-09  .100000000000D+01  .169600000000D+04  .000000000000D+00
     .340000000000D+01  .000000000000D+00 -.558793544769D-08  .520000000000D+02
     .540006000000D+06  .400000000000D+01
10 12  7 14  8  0  0.0 -.447072088718D-04 -.125055521494D-11  .000000000000D+00
     .300000000000D+01  .511250000000D+02  .474484049879D-08  .305379025762D+01
     .246614217758D-05  .113692054292D-01  .981241464615D-05  .515371397781D+04
     .547200000000D+06 -.540167093277D-07 -.917628679238D+00 -.197440385818D-06
     .945339162313D+00  .182218750000D+03  .752990041172D+00 -.781246827781D-08
    -.289654922433D-09  .100000000000D+01  .169600000000D+04  .000000000000D+00
     .240000000000D+01  .000000000000D+00 -.232830643654D-08  .300000000000D+01
     .540006000000D+06  .400000000000D+01
11 12  7 14  8  0  0.0 -.281562563032D-03 -.386535248253D-11  .000000000000D+00
     .310000000000D+02 -.309375000000D+01  .663991943644D-08 -.571479605471D+00
     .391155481339D-07  .130987209268D-01  .550411641598D-05  .515366977310D+04
     .547200000000D+06 -.670552253723D-07 -.226162768683D+01  .186264514923D-06
     .888086139964D+00  .237281250000D+03  .106172070603D+01 -.920716922984D-08
     .127148153374D-09  .100000000000D+01  .169600000000D+04  .000000000000D+00
     .240000000000D+01  .000000000000D+00 -.116415321827D-07  .310000000000D+02
     .540006000000D+06  .400000000000D+01
12 12  7 14  8  0  0.0  .798339024186D-04  .204636307899D-11  .000000000000D+00
     .560000000000D+02 -.926875000000D+02  .377087135764D-08 -.102972816225D+01
    -.477582216263D-05  .407412659843D-02  .828504562378D-05  .515376652527D+04
     .547200000000D+06  .577419996262D-07  .222964334125D+01 -.124797224998D-06
     .980397487913D+00  .231843750000D+03  .112026179117D+00 -.767317676147D-08
     .107147320259D-11  .100000000000D+01  .169600000000D+04  .000000000000D+00
     .240000000000D+01  .000000000000D+00 -.121071934700D-07  .560000000000D+02
     .540006000000D+06  .400000000000D+01
13 12  7 14  8  0  0.0  .194750260562D-03 -.250111042988D-11  .000000000000D+00
     .220000000000D+02  .850312500000D+02  .398373736722D-08  .155131984741D+01
     .422447919846D-05  .494525034446D-02  .491924583912D-05  .515364635277D+04
     .547200000000D+06  .968575477600D-07  .202735064158D+00 -.782310962677D-07
     .985554351678D+00  .292562500000D+03  .204654097273D+01 -.784568394709D-08
    -.714315468392D-11  .100000000000D+01  .169600000000D+04  .000000000000D+00
     .240000000000D+01  .000000000000D+00 -.111758708954D-07  .220000000000D+02
     .540006000000D+06  .400000000000D+01
14 12  7 14  8  0  0.0  .207029283047D-03  .682121026330D-12  .000000000000D+00
     .660000000000D+02  .908437500000D+02  .411767151755D-08  .179486088138D+01
     .458396971226D-05  .655326980632D-02  .602751970291D-05  .515361526680D+04
     .547200000000D+06 -.154599547386D-06  .175720004061D+00 -.106170773506D-06
     .978369475301D+00  .273937500000D+03 -.207074528150D+01 -.790461497323D-08
     .321441960776D-10  .100000000000D+01  .169600000000D+04  .000000000000D+00
     .240000000000D+01  .000000000000D+00 -.884756445885D-08  .660000000000D+02
     .540006000000D+06  .400000000000D+01
16 12  7 14  8  0  0.0 -.241024419665D-03 -.102318153949D-11  .000000000000D+00
     .650000000000D+02 -.815625000000D+02  .375408494414D-08  .300462175945D+01
    -.423938035965D-05  .660049461294D-02  .826083123684D-05  .515371242523D+04
     .547200000000D+06 -.409781932831D-07  .224782803618D+01  .186264514923D-08
     .981221868584D+00  .233031250000D+03  .178480833300D-01 -.763531804164D-08
     .964325882329D-11  .100000000000D+01  .169600000000D+04  .000000000000D+00
     .240000000000D+01  .000000000000D+00 -.977888703346D-08  .650000000000D+02
     .540006000000D+06  .400000000000D+01
17 12  7 14  8  0  0.0  .113525893539D-03 -.295585778076D-11  .000000000000D+00
     .650000000000D+02 -.111562500000D+02  .440375486264D-08  .207498205611D+01
    -.484287738800D-06  .741035037208D-02  .799633562565D-05  .515370741081D+04
     .547200000000D+06 -.134110450745D-06 -.299563502589D+01 -.126659870148D-06
     .963596635953D+00  .224156250000D+03 -.229422425924D+01 -.785532720591D-08
     .499306512406D-09  .100000000000D+01  .169600000000D+04  .000000000000D+00
     .240000000000D+01  .000000000000D+00 -.107102096081D-07  .650000000000D+02
     .540006000000D+06  .400000000000D+01
18 12  7 14  8  0  0.0  .205154065043D-03  .181898940355D-11  .000000000000D+00
     .540000000000D+02  .298437500000D+02  .515092884258D-08 -.273934674259D+01
     .145472586155D-05  .135613038437D-01  .954233109951D-05  .515371368217D+04
     .547200000000D+06  .195577740669D-06 -.929557970106D+00 -.173225998878D-06
     .929140944827D+00  .175562500000D+03 -.216298310465D+01 -.804747806691D-08
    -.241081470582D-09  .100000000000D+01  .169600000000D+04  .000000000000D+00
     .240000000000D+01  .000000000000D+00 -.107102096081D-07  .540000000000D+02
     .540006000000D+06  .400000000000D+01
19 12  7 14  8  0  0.0 -.284508801997D-03 -.363797880709D-11  .000000000000D+00
     .280000000000D+02 -.218750000000D+00  .453947480163D-08  .124838538248D+01
     .298023223877D-07  .850279408041D-02  .766292214394D-05  .515359682274D+04
     .547200000000D+06 -.223517417908D-07 -.294276437361D+01  .119209289551D-06
     .960934408855D+00  .231750000000D+03  .199880703251D+00 -.798890419850D-08
     .323227749447D-09  .100000000000D+01  .169600000000D+04  .000000000000D+00
     .240000000000D+01  .000000000000D+00 -.144354999065D-07  .280000000000D+02
     .540006000000D+06  .400000000000D+01
20 12  7 14  8  0  0.0  .647762790322D-04  .454747350886D-12  .000000000000D+00
     .880000000000D+02  .363437500000D+02  .527450541861D-08 -.235362809008D+01
     .187940895557D-05  .491904222872D-02  .887364149094D-05  .515366945076D+04
     .547200000000D+06  .968575477600D-07 -.983257331837D+00  .204890966415D-07
     .929609314142D+00  .192750000000D+03  .128829900298D+01 -.815498254490D-08
    -.228938107620D-09  .100000000000D+01  .169600000000D+04  .000000000000D+00
     .340000000000D+01  .000000000000D+00 -.791624188423D-08  .880000000000D+02
     .540006000000D+06  .400000000000D+01
